[{"OBJECT_NAME":"SHIJIAN-23 (SJ-23)","OBJECT_ID":"2023-002A","EPOCH":"2026-03-14T19:27:38.253024","MEAN_MOTION":1.00483612,"ECCENTRICITY":0.0005716,"INCLINATION":3.4734,"RA_OF_ASC_NODE":79.513,"ARG_OF_PERICENTER":264.9677,"MEAN_ANOMALY":257.3754,"EPHEMERIS_TYPE":0,"CLASSIFICATION_TYPE":"U","NORAD_CAT_ID":55131,"ELEMENT_SET_NO":999,"REV_AT_EPOCH":1156,"BSTAR":0,"MEAN_MOTION_DOT":-2.61e-6,"MEAN_MOTION_DDOT":0},{"OBJECT_NAME":"APSTAR-6E","OBJECT_ID":"2023-005A","EPOCH":"2026-03-12T16:04:13.730304","MEAN_MOTION":1.00268338,"ECCENTRICITY":9.082e-5,"INCLINATION":0.0323,"RA_OF_ASC_NODE":232.8508,"ARG_OF_PERICENTER":102.4149,"MEAN_ANOMALY":210.0395,"EPHEMERIS_TYPE":0,"CLASSIFICATION_TYPE":"U","NORAD_CAT_ID":55239,"ELEMENT_SET_NO":999,"REV_AT_EPOCH":1772,"BSTAR":0,"MEAN_MOTION_DOT":-3.18e-6,"MEAN_MOTION_DDOT":0},{"OBJECT_NAME":"USA 342","OBJECT_ID":"2023-008A","EPOCH":"2026-03-13T03:31:35.909760","MEAN_MOTION":1.00270806,"ECCENTRICITY":5.14e-5,"INCLINATION":0.0142,"RA_OF_ASC_NODE":169.819,"ARG_OF_PERICENTER":217.1614,"MEAN_ANOMALY":220.5363,"EPHEMERIS_TYPE":0,"CLASSIFICATION_TYPE":"U","NORAD_CAT_ID":55263,"ELEMENT_SET_NO":999,"REV_AT_EPOCH":1155,"BSTAR":0,"MEAN_MOTION_DOT":0,"MEAN_MOTION_DDOT":0},{"OBJECT_NAME":"ELEKTRO-L 4","OBJECT_ID":"2023-016A","EPOCH":"2026-03-15T01:26:13.207776","MEAN_MOTION":1.00272793,"ECCENTRICITY":0.0001662,"INCLINATION":0.079,"RA_OF_ASC_NODE":302.8746,"ARG_OF_PERICENTER":348.1377,"MEAN_ANOMALY":68.9528,"EPHEMERIS_TYPE":0,"CLASSIFICATION_TYPE":"U","NORAD_CAT_ID":55506,"ELEMENT_SET_NO":999,"REV_AT_EPOCH":1138,"BSTAR":0,"MEAN_MOTION_DOT":-5.9e-7,"MEAN_MOTION_DDOT":0},{"OBJECT_NAME":"AMAZONAS NEXUS","OBJECT_ID":"2023-017A","EPOCH":"2026-03-14T02:19:37.927200","MEAN_MOTION":1.00270142,"ECCENTRICITY":0.00049536,"INCLINATION":0.044,"RA_OF_ASC_NODE":33.2943,"ARG_OF_PERICENTER":340.174,"MEAN_ANOMALY":132.1484,"EPHEMERIS_TYPE":0,"CLASSIFICATION_TYPE":"U","NORAD_CAT_ID":55508,"ELEMENT_SET_NO":999,"REV_AT_EPOCH":609,"BSTAR":0,"MEAN_MOTION_DOT":-2.83e-6,"MEAN_MOTION_DDOT":0},{"OBJECT_NAME":"INMARSAT 6-F2","OBJECT_ID":"2023-022A","EPOCH":"2026-03-15T06:27:16.822080","MEAN_MOTION":1.00955738,"ECCENTRICITY":0.30736852,"INCLINATION":5.286,"RA_OF_ASC_NODE":35.8885,"ARG_OF_PERICENTER":214.136,"MEAN_ANOMALY":334.6899,"EPHEMERIS_TYPE":0,"CLASSIFICATION_TYPE":"U","NORAD_CAT_ID":55683,"ELEMENT_SET_NO":999,"REV_AT_EPOCH":960,"BSTAR":0,"MEAN_MOTION_DOT":-2.15e-6,"MEAN_MOTION_DDOT":0},{"OBJECT_NAME":"ZHONGXING-26","OBJECT_ID":"2023-023A","EPOCH":"2026-03-13T21:07:21.955872","MEAN_MOTION":1.00269153,"ECCENTRICITY":0.0003831,"INCLINATION":0.0613,"RA_OF_ASC_NODE":69.8631,"ARG_OF_PERICENTER":337.2004,"MEAN_ANOMALY":206.3891,"EPHEMERIS_TYPE":0,"CLASSIFICATION_TYPE":"U","NORAD_CAT_ID":55686,"ELEMENT_SET_NO":999,"REV_AT_EPOCH":1127,"BSTAR":0,"MEAN_MOTION_DOT":-3.54e-6,"MEAN_MOTION_DDOT":0},{"OBJECT_NAME":"LUCH-5X (OLYMP-K 2)","OBJECT_ID":"2023-031A","EPOCH":"2026-03-14T18:57:35.169696","MEAN_MOTION":1.00275467,"ECCENTRICITY":0.0001656,"INCLINATION":0.0268,"RA_OF_ASC_NODE":90.9514,"ARG_OF_PERICENTER":120.0527,"MEAN_ANOMALY":307.7537,"EPHEMERIS_TYPE":0,"CLASSIFICATION_TYPE":"U","NORAD_CAT_ID":55841,"ELEMENT_SET_NO":999,"REV_AT_EPOCH":1099,"BSTAR":0,"MEAN_MOTION_DOT":3.2e-7,"MEAN_MOTION_DDOT":0},{"OBJECT_NAME":"BREEZE-M R/B","OBJECT_ID":"2023-031B","EPOCH":"2026-03-14T23:24:58.684608","MEAN_MOTION":0.98959552,"ECCENTRICITY":0.00671434,"INCLINATION":2.5855,"RA_OF_ASC_NODE":80.6344,"ARG_OF_PERICENTER":7.3731,"MEAN_ANOMALY":353.2174,"EPHEMERIS_TYPE":0,"CLASSIFICATION_TYPE":"U","NORAD_CAT_ID":55842,"ELEMENT_SET_NO":999,"REV_AT_EPOCH":1084,"BSTAR":0,"MEAN_MOTION_DOT":-5.3e-7,"MEAN_MOTION_DDOT":0},{"OBJECT_NAME":"ATLAS 5 CENTAUR DEB","OBJECT_ID":"2018-079HC","EPOCH":"2026-03-13T12:52:06.895488","MEAN_MOTION":1.79289398,"ECCENTRICITY":0.50801458,"INCLINATION":13.4324,"RA_OF_ASC_NODE":36.101,"ARG_OF_PERICENTER":311.5371,"MEAN_ANOMALY":14.7617,"EPHEMERIS_TYPE":0,"CLASSIFICATION_TYPE":"U","NORAD_CAT_ID":55850,"ELEMENT_SET_NO":999,"REV_AT_EPOCH":2328,"BSTAR":0,"MEAN_MOTION_DOT":-1.69e-6,"MEAN_MOTION_DDOT":0},{"OBJECT_NAME":"GAOFEN-13 02","OBJECT_ID":"2023-036A","EPOCH":"2026-03-14T15:00:36.022752","MEAN_MOTION":1.00273057,"ECCENTRICITY":0.00050007,"INCLINATION":1.0291,"RA_OF_ASC_NODE":348.9685,"ARG_OF_PERICENTER":336.5456,"MEAN_ANOMALY":220.112,"EPHEMERIS_TYPE":0,"CLASSIFICATION_TYPE":"U","NORAD_CAT_ID":55912,"ELEMENT_SET_NO":999,"REV_AT_EPOCH":1114,"BSTAR":0,"MEAN_MOTION_DOT":-2.18e-6,"MEAN_MOTION_DDOT":0},{"OBJECT_NAME":"SES-18","OBJECT_ID":"2023-038A","EPOCH":"2026-03-15T03:34:58.022688","MEAN_MOTION":1.00271883,"ECCENTRICITY":0.00020056,"INCLINATION":0.0377,"RA_OF_ASC_NODE":265.2265,"ARG_OF_PERICENTER":53.8956,"MEAN_ANOMALY":164.2649,"EPHEMERIS_TYPE":0,"CLASSIFICATION_TYPE":"U","NORAD_CAT_ID":55970,"ELEMENT_SET_NO":999,"REV_AT_EPOCH":1116,"BSTAR":0,"MEAN_MOTION_DOT":-1.02e-6,"MEAN_MOTION_DDOT":0},{"OBJECT_NAME":"SES-19","OBJECT_ID":"2023-038B","EPOCH":"2026-03-15T06:07:03.760896","MEAN_MOTION":1.00271481,"ECCENTRICITY":0.00015853,"INCLINATION":0.0515,"RA_OF_ASC_NODE":281.2053,"ARG_OF_PERICENTER":75.3458,"MEAN_ANOMALY":133.1659,"EPHEMERIS_TYPE":0,"CLASSIFICATION_TYPE":"U","NORAD_CAT_ID":55971,"ELEMENT_SET_NO":999,"REV_AT_EPOCH":1114,"BSTAR":0,"MEAN_MOTION_DOT":8.7e-7,"MEAN_MOTION_DDOT":0},{"OBJECT_NAME":"INTELSAT 40E (IS-40E)","OBJECT_ID":"2023-052A","EPOCH":"2026-03-12T09:12:38.616192","MEAN_MOTION":1.0027224,"ECCENTRICITY":8.13e-5,"INCLINATION":0.0089,"RA_OF_ASC_NODE":156.5234,"ARG_OF_PERICENTER":240.8747,"MEAN_ANOMALY":179.7718,"EPHEMERIS_TYPE":0,"CLASSIFICATION_TYPE":"U","NORAD_CAT_ID":56174,"ELEMENT_SET_NO":999,"REV_AT_EPOCH":1085,"BSTAR":0,"MEAN_MOTION_DOT":-1.74e-6,"MEAN_MOTION_DDOT":0},{"OBJECT_NAME":"VIASAT-3 F1","OBJECT_ID":"2023-060A","EPOCH":"2026-03-14T02:57:10.910016","MEAN_MOTION":1.00270656,"ECCENTRICITY":5.866e-5,"INCLINATION":0.0136,"RA_OF_ASC_NODE":135.1378,"ARG_OF_PERICENTER":313.7347,"MEAN_ANOMALY":38.2373,"EPHEMERIS_TYPE":0,"CLASSIFICATION_TYPE":"U","NORAD_CAT_ID":56370,"ELEMENT_SET_NO":999,"REV_AT_EPOCH":1048,"BSTAR":0,"MEAN_MOTION_DOT":-1.86e-6,"MEAN_MOTION_DDOT":0},{"OBJECT_NAME":"ARCTURUS","OBJECT_ID":"2023-060B","EPOCH":"2026-03-13T22:35:06.042624","MEAN_MOTION":1.0027157,"ECCENTRICITY":0.00010043,"INCLINATION":2.5298,"RA_OF_ASC_NODE":81.1444,"ARG_OF_PERICENTER":255.3549,"MEAN_ANOMALY":246.2977,"EPHEMERIS_TYPE":0,"CLASSIFICATION_TYPE":"U","NORAD_CAT_ID":56371,"ELEMENT_SET_NO":999,"REV_AT_EPOCH":1050,"BSTAR":0,"MEAN_MOTION_DOT":-6.2e-7,"MEAN_MOTION_DDOT":0},{"OBJECT_NAME":"GS-1","OBJECT_ID":"2023-060C","EPOCH":"2026-03-14T15:16:38.447904","MEAN_MOTION":1.00297675,"ECCENTRICITY":0.00047901,"INCLINATION":2.4822,"RA_OF_ASC_NODE":80.9448,"ARG_OF_PERICENTER":264.3577,"MEAN_ANOMALY":140.3279,"EPHEMERIS_TYPE":0,"CLASSIFICATION_TYPE":"U","NORAD_CAT_ID":56372,"ELEMENT_SET_NO":999,"REV_AT_EPOCH":659,"BSTAR":0,"MEAN_MOTION_DOT":-1.82e-6,"MEAN_MOTION_DDOT":0}]
