SHIJIAN-23 (SJ-23)      
1 55131U 23002A   26073.81085941 -.00000261  00000+0  00000+0 0  9994
2 55131   3.4734  79.5130 0005716 264.9677 257.3754  1.00483612 11564
APSTAR-6E               
1 55239U 23005A   26071.66960336 -.00000318  00000+0  00000+0 0  9990
2 55239   0.0323 232.8508 0000908 102.4149 210.0395  1.00268338 17728
USA 342                 
1 55263U 23008A   26072.14694340  .00000000  00000+0  00000+0 0  9990
2 55263   0.0142 169.8190 0000514 217.1614 220.5363  1.00270806 11553
ELEKTRO-L 4             
1 55506U 23016A   26074.05987509 -.00000059  00000+0  00000+0 0  9998
2 55506   0.0790 302.8746 0001662 348.1377  68.9528  1.00272793 11389
AMAZONAS NEXUS          
1 55508U 23017A   26073.09696675 -.00000283  00000+0  00000+0 0  9994
2 55508   0.0440  33.2943 0004953 340.1740 132.1484  1.00270142  6092
INMARSAT 6-F2           
1 55683U 23022A   26074.26894470 -.00000215  00000+0  00000+0 0  9992
2 55683   5.2860  35.8885 3073685 214.1360 334.6899  1.00955738  9601
ZHONGXING-26            
1 55686U 23023A   26072.88011523 -.00000354  00000+0  00000+0 0  9996
2 55686   0.0613  69.8631 0003831 337.2004 206.3891  1.00269153 11276
LUCH-5X (OLYMP-K 2)     
1 55841U 23031A   26073.78999039  .00000032  00000+0  00000+0 0  9997
2 55841   0.0268  90.9514 0001656 120.0527 307.7537  1.00275467 10997
BREEZE-M R/B            
1 55842U 23031B   26073.97567922 -.00000053  00000+0  00000+0 0  9995
2 55842   2.5855  80.6344 0067143   7.3731 353.2174  0.98959552 10848
ATLAS 5 CENTAUR DEB     
1 55850U 18079HC  26072.53619092 -.00000169  00000+0  00000+0 0  9995
2 55850  13.4324  36.1010 5080145 311.5371  14.7617  1.79289398 23284
GAOFEN-13 02            
1 55912U 23036A   26073.62541693 -.00000218  00000+0  00000+0 0  9990
2 55912   1.0291 348.9685 0005000 336.5456 220.1120  1.00273057 11147
SES-18                  
1 55970U 23038A   26074.14928267 -.00000102  00000+0  00000+0 0  9992
2 55970   0.0377 265.2265 0002005  53.8956 164.2649  1.00271883 11167
SES-19                  
1 55971U 23038B   26074.25490464  .00000087  00000+0  00000+0 0  9999
2 55971   0.0515 281.2053 0001585  75.3458 133.1659  1.00271481 11141
INTELSAT 40E (IS-40E)   
1 56174U 23052A   26071.38378028 -.00000174  00000+0  00000+0 0  9991
2 56174   0.0089 156.5234 0000813 240.8747 179.7718  1.00272240 10854
VIASAT-3 F1             
1 56370U 23060A   26073.12304294 -.00000186  00000+0  00000+0 0  9999
2 56370   0.0136 135.1378 0000586 313.7347  38.2373  1.00270656 10484
ARCTURUS                
1 56371U 23060B   26072.94104216 -.00000062  00000+0  00000+0 0  9994
2 56371   2.5298  81.1444 0001004 255.3549 246.2977  1.00271570 10506
GS-1                    
1 56372U 23060C   26073.63655611 -.00000182  00000+0  00000+0 0  9995
2 56372   2.4822  80.9448 0004790 264.3577 140.3279  1.00297675  6593
